{"type":"FeatureCollection","properties":{"source":"UAControlMap / Project Owl","source_url":"https://github.com/owlmaps/UAControlMapBackups","generated_at":"2026-09-26T07:38:31.814563Z","source_sha256":"c14e94e840b173faa8df82fd01989392917212ed15a0c56d9ba5e72de904a106","licence_status":"No explicit data licence published; attribution retained.","source_commit":"4781be93d36aab69212681416d83c7cf20059284","source_updated_at":"2026-09-26T04:01:10Z"},"features":[{"type":"Feature","properties":{"name":"Frontline","source":"UAControlMap","source_url":"https://github.com/owlmaps/UAControlMapBackups","source_folder":"Frontline","source_id":null,"source_index":0,"description":"Estimated max extent of solid Russian front","style":{"color":"#a52714","opacity":1.0,"weight":2.163}},"geometry":{"type":"LineString","coordinates":[[36.374217,50.300471],[36.378152,50.293941],[36.386668,50.280434],[36.3913297,50.2670876],[36.4085209,50.2612009],[36.4208414,50.256704],[36.4294477,50.2553075],[36.4371093,50.2530324],[36.4596856,50.2555617],[36.4695759,50.2527362],[36.465436,50.240325],[36.536568,50.229072],[36.5662288,50.2385105],[36.570647,50.243081],[36.598087,50.230819],[36.6545089,50.2200253],[36.6795004,50.2378526],[36.6816216,50.2561142],[36.6888384,50.2667346],[36.6956892,50.2695942],[36.6954106,50.2668591],[36.7359227,50.2598359],[36.79149,50.24789],[36.8028285,50.2494639],[36.8129128,50.2501226],[36.8230409,50.2471587],[36.8324823,50.2502323],[36.8634671,50.2689439],[36.8903896,50.2554686],[36.9000026,50.2641933],[36.898486,50.2783791],[36.9156524,50.2835905],[36.9249794,50.2759334],[36.9532177,50.2740683],[36.96536,50.276488],[36.9629449,50.2898416],[36.9911832,50.2967507],[37.0056886,50.3040424],[37.0211381,50.30629],[37.0127267,50.3485364],[37.03772,50.348677],[37.044654,50.344909],[37.105877,50.351756],[37.103193,50.357225],[37.138173,50.361027],[37.149074,50.355756],[37.2226002,50.3776444],[37.222387,50.379412],[37.255944,50.3925],[37.257831,50.390867],[37.299535,50.405952],[37.309985,50.426166],[37.319762,50.432949],[37.332589,50.437052],[37.354522,50.437762],[37.396593,50.43108],[37.421346,50.434621],[37.432676,50.443498],[37.472759,50.455455],[37.47714,50.459549],[37.490883,50.457449],[37.484528,50.444695],[37.4855,50.430983],[37.466445,50.430655],[37.463184,50.418406],[37.46696,50.411405],[37.467647,50.381422],[37.471207,50.375454],[37.472282,50.37124],[37.477088,50.366422],[37.482646,50.359209],[37.485059,50.3567],[37.505819,50.352035],[37.521233,50.336382],[37.555388,50.329631],[37.5769,50.306346],[37.585717,50.314378],[37.595212,50.3162],[37.608753,50.316794],[37.630265,50.313722],[37.634891,50.311837],[37.63793,50.302608],[37.626208,50.29272],[37.625668,50.24524],[37.627067,50.240561],[37.614933,50.22231],[37.614923,50.217038],[37.617327,50.214237],[37.621091,50.212282],[37.643341,50.190845],[37.640272,50.176054],[37.646723,50.174618],[37.6463472,50.1600802],[37.6411973,50.1518314],[37.6518404,50.1375301],[37.673813,50.1062726],[37.6916658,50.0849089],[37.7357828,50.0716895],[37.7677117,50.0661803],[37.8247033,50.0445782],[37.846161,50.0380737],[37.8665887,50.033553],[37.8992044,50.0121569],[37.8798066,49.9868884],[37.8300248,49.9882128],[37.7507173,49.9466962],[37.7352678,49.9047016],[37.6971589,49.9064705],[37.6885759,49.8845754],[37.6932107,49.8730709],[37.665286,49.857213],[37.6751859,49.8090279],[37.6315838,49.8011065],[37.631241,49.7783872],[37.6130449,49.7552141],[37.6330369,49.7446802],[37.66214,49.7603153],[37.7029954,49.7359132],[37.7124153,49.7185874],[37.7436792,49.7130528],[37.7425591,49.6970714],[37.7347528,49.6838513],[37.7410461,49.6823329],[37.739113,49.6618198],[37.6957694,49.6654539],[37.695694,49.6580721],[37.7326929,49.6535765],[37.7689545,49.6547662],[37.7849637,49.6500756],[37.7902506,49.6511929],[37.8013742,49.6547547],[37.821732,49.6499843],[37.8194408,49.6067508],[37.8051409,49.6056682],[37.8053999,49.5929222],[37.7910424,49.5932685],[37.7917922,49.5849347],[37.7843659,49.5849589],[37.7840196,49.5772782],[37.7621327,49.572269],[37.7632914,49.559882],[37.770834,49.560084],[37.7710805,49.5537717],[37.7617036,49.5519488],[37.7422201,49.5481065],[37.7205049,49.5526727],[37.6943265,49.5538977],[37.6962148,49.5413122],[37.6957104,49.5364256],[37.6893873,49.519818],[37.69664,49.5166698],[37.7264232,49.5147751],[37.7501983,49.504632],[37.787878,49.4954902],[37.7792949,49.4809937],[37.7768917,49.4813283],[37.7585239,49.4560049],[37.7492764,49.4501872],[37.729298,49.4385096],[37.7221941,49.4376595],[37.7232672,49.4189103],[37.7154775,49.4129567],[37.7051143,49.4056619],[37.7009328,49.4012707],[37.7538902,49.413418],[37.7708835,49.4133608],[37.7885647,49.402303],[37.8033275,49.4008508],[37.8089924,49.3977228],[37.8484745,49.3945946],[37.8499336,49.3794814],[37.8650827,49.3794814],[37.8804473,49.3861336],[37.8937033,49.3884289],[37.9175428,49.3951886],[37.9213837,49.3823666],[37.9399446,49.3820174],[37.9438385,49.3768236],[37.953699,49.3652655],[37.9533429,49.3628023],[37.9508659,49.3598694],[37.9408794,49.3520442],[37.9447417,49.3470929],[37.9409075,49.3447298],[37.948765,49.342276],[37.951074,49.338793],[37.9590989,49.3316698],[37.9607935,49.3253123],[37.9578015,49.3222949],[37.967828,49.312256],[37.9694213,49.3026539],[37.9702846,49.2997839],[37.9665081,49.2935429],[37.9685577,49.287507],[37.9781706,49.286141],[37.9780238,49.2822679],[37.9837421,49.2803588],[37.9839102,49.2794485],[37.9935233,49.2789446],[37.9973857,49.2772088],[37.9970423,49.2665124],[37.9985015,49.2633898],[37.9874293,49.2581244],[37.979726,49.2556456],[37.9725162,49.2542871],[37.9692761,49.2524944],[37.9738895,49.2467516],[37.9694692,49.2413864],[37.9710786,49.2334005],[37.9520671,49.2274593],[37.922198,49.2268147],[37.8975646,49.2238718],[37.8997962,49.2130342],[37.9007332,49.2106508],[37.9086726,49.2121788],[37.9159877,49.2027176],[37.9242762,49.2050985],[37.9354545,49.1918834],[37.9402519,49.1845036],[37.923765,49.1766746],[37.921289,49.1647786],[37.933957,49.1622565],[37.9301805,49.143956],[37.9455566,49.1385244],[37.9464404,49.1333388],[37.9595514,49.1283243],[37.9408625,49.0660848],[37.9390096,49.0271644],[37.9153997,49.0230374],[37.9037988,49.0003001],[37.8934014,48.9960436],[37.8940644,48.9819059],[37.9285794,48.9525376],[37.953631,48.9458414],[37.9608443,48.9360593],[37.9817834,48.9205244],[37.976029,48.9044338],[37.9624266,48.9006058],[37.9385248,48.9035451],[37.9304566,48.8880275],[37.9199371,48.8809415],[37.9136969,48.878502],[37.9110754,48.8671978],[37.901073,48.8539739],[37.8504981,48.8554974],[37.8532902,48.8469292],[37.8588557,48.8334904],[37.9094497,48.8373451],[37.9192934,48.7942892],[37.9205539,48.78537],[37.9273358,48.7697028],[37.9221011,48.7646701],[37.8906957,48.7586786],[37.8609291,48.7400488],[37.82843,48.7359],[37.8195107,48.7205606],[37.804933,48.6926133],[37.8253179,48.6800893],[37.8210285,48.6753854],[37.8163936,48.66711],[37.8196552,48.6506685],[37.8138187,48.647493],[37.7894428,48.6449978],[37.7910776,48.6428414],[37.8155837,48.6337661],[37.8167369,48.6153864],[37.7939918,48.6118682],[37.7791431,48.6105062],[37.7825763,48.5983037],[37.8084114,48.5878015],[37.8139045,48.5867228],[37.8148286,48.5774538],[37.8094414,48.5616216],[37.7888419,48.5513959],[37.7681091,48.5506901],[37.69882,48.53876],[37.746196,48.516214],[37.731206,48.509367],[37.7217435,48.5069499],[37.6995746,48.4956998],[37.673497,48.494559],[37.6646168,48.5045625],[37.6389587,48.4958972],[37.613117,48.493891],[37.6373735,48.4652847],[37.6401558,48.4516921],[37.6149411,48.4445533],[37.6127288,48.4524428],[37.5973604,48.4487052],[37.5961473,48.4544364],[37.58514,48.452462],[37.5860922,48.4497204],[37.5590555,48.4475855],[37.5584547,48.4488949],[37.5454943,48.4478702],[37.4938671,48.4580315],[37.4679463,48.4526522],[37.460479,48.4631256],[37.4317257,48.4659712],[37.4333994,48.4755029],[37.4231863,48.5007765],[37.3710679,48.5078409],[37.3506159,48.4865985],[37.345423,48.4661704],[37.3161025,48.4582699],[37.2241446,48.4539963],[37.2171853,48.4237105],[37.1889484,48.4220143],[37.168698,48.4212541],[37.1754785,48.3890606],[37.1759935,48.3837017],[37.1542532,48.3897274],[37.1467189,48.3803747],[37.1357486,48.3837893],[37.092173,48.3778412],[37.0969261,48.3640976],[37.0748485,48.3615727],[37.0725709,48.3688397],[37.0242972,48.3638094],[37.0211887,48.3578131],[37.0328418,48.3481666],[37.0377335,48.3295035],[37.0417652,48.3300119],[37.0456851,48.3086549],[37.0614874,48.3069135],[37.0671602,48.2814213],[37.0555719,48.2802659],[37.0578905,48.2693965],[37.050983,48.260725],[37.0438767,48.2553759],[37.0452171,48.2495578],[37.0361034,48.2458486],[37.0168635,48.2430522],[37.0140407,48.2528035],[37.0117316,48.2595808],[36.999216,48.25999],[36.981213,48.2581263],[36.9612162,48.2557027],[36.9637076,48.2389874],[36.948352,48.2391037],[36.9475122,48.2352205],[36.9528338,48.2073713],[36.9333956,48.2054855],[36.9358109,48.1957658],[36.9405814,48.1865174],[36.9381782,48.1766167],[36.9234153,48.1753575],[36.905305,48.1722094],[36.894662,48.1714653],[36.9008418,48.1407751],[36.9056483,48.134589],[36.8945762,48.1314957],[36.8854788,48.1264101],[36.8853872,48.1246948],[36.8950205,48.0771734],[36.881602,48.0626252],[36.881933,48.0617756],[36.8784936,48.0618097],[36.876428,48.051059],[36.8581319,48.0522352],[36.8565109,48.0340391],[36.8536032,48.0326582],[36.8475911,48.0349223],[36.8455302,48.0368083],[36.8423539,48.0380956],[36.8369437,48.0355788],[36.8336734,48.0348255],[36.8303941,48.0359585],[36.8267537,48.0354693],[36.8182693,48.0401143],[36.81263,48.0398765],[36.8080441,48.043647],[36.8074542,48.0462529],[36.8036983,48.0476769],[36.7979382,48.0090436],[36.7579047,48.0111694],[36.757291,48.0066506],[36.7461979,48.0072104],[36.7407248,48.0016903],[36.74077,47.97478],[36.7566079,47.9662224],[36.7650321,47.945196],[36.7367223,47.9404942],[36.7026363,47.9368032],[36.6750764,47.9309278],[36.6812488,47.9074345],[36.6452194,47.90986],[36.6385273,47.8920584],[36.6273755,47.8908325],[36.6280748,47.8874608],[36.6369582,47.854643],[36.5851594,47.8473856],[36.5206862,47.8365048],[36.5225753,47.8287399],[36.5277251,47.8136407],[36.4763687,47.8070211],[36.4505161,47.8118545],[36.4266545,47.8118203],[36.4178884,47.8108925],[36.4068951,47.8080366],[36.3962459,47.8069091],[36.3977803,47.7972753],[36.3974558,47.7910347],[36.3856312,47.7925217],[36.375579,47.7892417],[36.3351913,47.7853116],[36.3361371,47.7805867],[36.33842,47.7715],[36.2850093,47.7644088],[36.2873875,47.7531606],[36.2528151,47.7492898],[36.2205024,47.7558393],[36.2189774,47.7619789],[36.188746,47.759494],[36.1709364,47.7457048],[36.14352,47.7453],[36.1292296,47.7411586],[36.11664,47.70195],[36.1343007,47.6673545],[36.170356,47.644179],[36.1833795,47.6320661],[36.2004919,47.612563],[36.1768346,47.6101702],[36.1658807,47.6110152],[36.1455817,47.6110152],[36.1262058,47.6047081],[36.0590645,47.5970973],[36.0681493,47.5777411],[36.0715952,47.5620938],[36.082249,47.5628933],[36.0831503,47.5513376],[36.092892,47.5470217],[36.0829357,47.5215533],[36.0653833,47.5237559],[36.0513715,47.5175175],[36.0177258,47.5191985],[36.015472,47.5189762],[36.0151302,47.5125232],[35.9938469,47.5138953],[35.9811494,47.5160578],[35.9760204,47.5111619],[35.9672334,47.508105],[35.9683376,47.4839709],[35.9608032,47.4821424],[35.951381,47.4810673],[35.9516812,47.4650632],[35.9337877,47.4664065],[35.9207876,47.463978],[35.9119034,47.4423004],[35.898765,47.443407],[35.885451,47.4448515],[35.8848839,47.4438879],[35.8569427,47.4415284],[35.8543641,47.4460614],[35.8430547,47.4499018],[35.8337169,47.4578476],[35.8265927,47.4577324],[35.8211348,47.4531725],[35.8171833,47.4508342],[35.8045647,47.4528281],[35.8030446,47.4520005],[35.7951176,47.4531538],[35.7942439,47.4568352],[35.78835,47.465683],[35.7825609,47.4814762],[35.7458215,47.4844765],[35.7466764,47.4906152],[35.7205404,47.490289],[35.6824938,47.5063597],[35.670295,47.50005],[35.6503737,47.4984928],[35.6391444,47.4956779],[35.6137032,47.4976327],[35.6043248,47.5014338],[35.5924682,47.5171902],[35.5714773,47.5112857],[35.5681771,47.5218265],[35.5270624,47.5179134],[35.5225504,47.5302012],[35.481918,47.5276121],[35.4806792,47.535384],[35.4277424,47.5315327],[35.4066102,47.5358369],[35.395928,47.537107],[35.3843292,47.536803],[35.3792654,47.548638],[35.36412,47.55371],[35.3475617,47.5557737],[35.3302808,47.5415858],[35.331739,47.5366544],[35.331911,47.522282],[35.318178,47.514398],[35.299131,47.511669],[35.29103,47.509376],[35.279122,47.503746],[35.273929,47.497529],[35.272643,47.493618],[35.277623,47.480112],[35.269903,47.474502],[35.266652,47.47442],[35.202224,47.445246],[35.177018,47.445793],[35.088237,47.452014],[35.062488,47.450389],[35.048326,47.440173],[35.024294,47.416308],[34.978791,47.392914],[34.944728,47.390572],[34.885162,47.405794],[34.865593,47.420663],[34.874726,47.437336],[34.875549,47.448067],[34.869504,47.450376],[34.863678,47.449514],[34.825253,47.463738],[34.804653,47.46687],[34.767344,47.478831],[34.761284,47.484857],[34.750525,47.492496],[34.692787,47.496948],[34.681726,47.515306],[34.654093,47.529283],[34.650158,47.539464],[34.639515,47.545606],[34.616855,47.545374],[34.581573,47.525826],[34.550417,47.53501],[34.531368,47.532511],[34.50064,47.500628],[34.425223,47.498252],[34.388932,47.514159],[34.366745,47.506311],[34.366172,47.492517],[34.348232,47.482239],[34.337082,47.46818],[34.339508,47.451668],[34.293975,47.42897],[34.285617,47.435463],[34.270958,47.441334],[34.249672,47.43576],[34.203666,47.413462],[34.152797,47.424715],[34.140041,47.424991],[34.097971,47.421451],[34.061531,47.424612],[34.04448,47.417727],[34.012092,47.343485],[33.98147,47.228038],[33.852724,47.14007],[33.794161,47.056573],[33.700527,47.006905],[33.680135,46.904049],[33.658407,46.911379],[33.630091,46.897428],[33.63346,46.841469],[33.577879,46.822501],[33.465327,46.822515],[33.370207,46.777355],[33.334111,46.755152],[33.281666,46.749724],[33.241807,46.762285],[33.213141,46.767035],[33.195029,46.769408],[33.170733,46.776125],[33.158697,46.778898],[33.147479,46.758847],[33.115894,46.748909],[33.097612,46.741792],[33.024425,46.718532],[33.012268,46.717376],[32.997398,46.71553],[32.988904,46.714],[32.980926,46.710825],[32.963258,46.711066],[32.948868,46.712488],[32.941718,46.714389],[32.925531,46.713124],[32.913141,46.710665],[32.905905,46.708795],[32.87129,46.685989],[32.863157,46.679444],[32.857536,46.67177],[32.846638,46.663841],[32.839952,46.65611],[32.831802,46.651685],[32.813007,46.644966],[32.80962,46.643009],[32.804521,46.639742],[32.800613,46.638374],[32.773934,46.636511],[32.766492,46.635714],[32.76088,46.634356],[32.756251,46.63222],[32.75042,46.631734],[32.745625,46.63359],[32.743158,46.633825],[32.739243,46.633264],[32.734684,46.633204],[32.730661,46.633395],[32.726982,46.634175],[32.725402,46.643206],[32.719702,46.642927],[32.718087,46.637417],[32.71314,46.637006],[32.706567,46.633341],[32.70026,46.627678],[32.69046,46.624148],[32.66797,46.618845],[32.662645,46.6143058],[32.6452709,46.6082788],[32.6422073,46.6047454],[32.6376737,46.6019615],[32.6420787,46.5825559],[32.6010581,46.5606574],[32.5810381,46.5542446],[32.5583324,46.5420414],[32.5302173,46.5378866],[32.5216283,46.5407412],[32.5108938,46.5414285],[32.5047072,46.5382182],[32.49721,46.532557],[32.486454,46.526141],[32.473304,46.513345],[32.456658,46.505042],[32.439125,46.503071],[32.427662,46.489501],[32.420584,46.487562],[32.402494,46.477168],[32.383138,46.471501],[32.362098,46.466873],[32.334117,46.467938],[32.311715,46.47201],[32.296964,46.473274],[32.1633,46.495181],[32.080697,46.502858],[32.015928,46.492629],[31.756538,46.548159],[31.569083,46.543908],[31.534751,46.558547],[31.513962,46.57847]]}},{"type":"Feature","properties":{"name":"Incursion Frontline","source":"UAControlMap","source_url":"https://github.com/owlmaps/UAControlMapBackups","source_folder":"Frontline","source_id":null,"source_index":1,"description":"Shows Russian incursion into Ukraine from Sumy","style":{"color":"#a52714","opacity":1.0,"weight":2.744}},"geometry":{"type":"LineString","coordinates":[[35.4853649,50.6560545],[35.4629422,50.6664698],[35.4298115,50.6560234],[35.3929043,50.6864856],[35.3789998,50.7149716],[35.4322,50.718074],[35.4641438,50.7352927],[35.4710608,50.7373713],[35.4741507,50.7406304],[35.4693442,50.7449755],[35.4782705,50.7532301],[35.474494,50.7554021],[35.4892569,50.7766826],[35.4738074,50.7849316],[35.4518347,50.7825438],[35.4326086,50.7949153],[35.4185324,50.7986043],[35.4134577,50.8058872],[35.4185324,50.820299],[35.4205923,50.8437178],[35.4047995,50.8640913],[35.3944998,50.8649581],[35.3835135,50.871025],[35.3962276,50.8782521],[35.4013774,50.8796602],[35.3891704,50.884731],[35.3802441,50.8957761],[35.4032467,50.9024885],[35.3928458,50.9245224],[35.3879535,50.9236568],[35.3731906,50.9234404],[35.3659809,50.9259291],[35.3724257,50.9324433],[35.3642799,50.9326291],[35.3549244,50.9310604],[35.3542378,50.932169],[35.3504611,50.9318037],[35.3476502,50.9317877],[35.3475,50.9326371],[35.3484012,50.9328754],[35.3453971,50.9328111],[35.3432694,50.9352518],[35.3331162,50.9343548],[35.3255024,50.946728],[35.3295701,50.9476823],[35.3301523,50.9519707],[35.3359152,50.9584819],[35.3344739,50.958801],[35.3358131,50.9630692],[35.341616,50.9638775],[35.3432469,50.9675271],[35.3483116,50.971609],[35.3520916,50.9725862],[35.3431652,50.9866362],[35.3328655,50.9909585],[35.3301189,50.9967929],[35.337672,50.9985214],[35.3222225,51.0134277],[35.3249691,51.0147236],[35.3352688,51.0082434],[35.3598163,51.005327],[35.404277,51.022397],[35.403275,51.030645],[35.405948,51.048488],[35.395078,51.055136],[35.386853,51.053786],[35.37448,51.067167],[35.361025,51.066094],[35.3493514,51.0614109],[35.3283285,51.0709968],[35.3259252,51.0740169],[35.3283285,51.0771447],[35.3127073,51.0770368],[35.3116773,51.0787624],[35.3041242,51.0788703],[35.3048518,51.0749396],[35.2750669,51.063918],[35.2754313,51.0588107],[35.2668698,51.057803],[35.2656682,51.0627659],[35.2577718,51.0589898],[35.2483304,51.064492],[35.2442105,51.0635211],[35.2423222,51.0602845],[35.2141698,51.0467963],[35.1992976,51.0522285],[35.1957519,51.0498937],[35.1630116,51.0814824],[35.1477755,51.0826537],[35.1551444,51.0907838],[35.1734255,51.0877315],[35.1774175,51.098496],[35.1642419,51.1019296],[35.1744914,51.1215326],[35.1681502,51.1263941],[35.1418253,51.1339831],[35.1427881,51.1401392],[35.1375706,51.1430641],[35.1282081,51.1500598],[35.1152864,51.1446525],[35.0686488,51.1222596],[35.050703,51.1098776],[35.0427207,51.106752],[35.0209197,51.1127874],[34.9860725,51.1274414],[34.9795494,51.1274414],[34.9474487,51.1343358],[34.9503669,51.1440293],[34.924539,51.152756],[34.9234161,51.1611495],[34.8714027,51.1217312],[34.8482284,51.1275491],[34.8353538,51.1271182],[34.806066,51.14018],[34.8013648,51.1435985],[34.8011932,51.1459677],[34.7808601,51.1572509],[34.7606811,51.1726671],[34.7584495,51.1771872],[34.7786538,51.1766966]]}}]}
